[{"OBJECT_NAME":"STARLINK-32252","OBJECT_ID":"2024-144T","EPOCH":"2025-10-21T19:57:08.341920","MEAN_MOTION":15.30208461,"ECCENTRICITY":0.0001075,"INCLINATION":53.1591,"RA_OF_ASC_NODE":141.805,"ARG_OF_PERICENTER":86.3085,"MEAN_ANOMALY":273.8038,"EPHEMERIS_TYPE":0,"CLASSIFICATION_TYPE":"U","NORAD_CAT_ID":60442,"ELEMENT_SET_NO":999,"REV_AT_EPOCH":6809,"BSTAR":-0.00011563,"MEAN_MOTION_DOT":-3.783e-5,"MEAN_MOTION_DDOT":0},{"OBJECT_NAME":"STARLINK-32237","OBJECT_ID":"2024-144U","EPOCH":"2025-10-21T20:01:42.665376","MEAN_MOTION":15.30185995,"ECCENTRICITY":0.0001254,"INCLINATION":53.1595,"RA_OF_ASC_NODE":141.8261,"ARG_OF_PERICENTER":87.4944,"MEAN_ANOMALY":272.62,"EPHEMERIS_TYPE":0,"CLASSIFICATION_TYPE":"U","NORAD_CAT_ID":60443,"ELEMENT_SET_NO":999,"REV_AT_EPOCH":6805,"BSTAR":4.4135e-5,"MEAN_MOTION_DOT":9.48e-6,"MEAN_MOTION_DDOT":0},{"OBJECT_NAME":"STARLINK-32249","OBJECT_ID":"2024-144V","EPOCH":"2025-10-21T19:48:02.158272","MEAN_MOTION":15.30197909,"ECCENTRICITY":0.0001266,"INCLINATION":53.1578,"RA_OF_ASC_NODE":141.7646,"ARG_OF_PERICENTER":88.1656,"MEAN_ANOMALY":271.949,"EPHEMERIS_TYPE":0,"CLASSIFICATION_TYPE":"U","NORAD_CAT_ID":60444,"ELEMENT_SET_NO":999,"REV_AT_EPOCH":6809,"BSTAR":0.00015397,"MEAN_MOTION_DOT":4.203e-5,"MEAN_MOTION_DDOT":0},{"OBJECT_NAME":"STARLINK-32228","OBJECT_ID":"2024-144W","EPOCH":"2025-10-21T19:52:35.508000","MEAN_MOTION":15.30185398,"ECCENTRICITY":9.7e-5,"INCLINATION":53.1596,"RA_OF_ASC_NODE":141.7851,"ARG_OF_PERICENTER":64.5045,"MEAN_ANOMALY":295.6056,"EPHEMERIS_TYPE":0,"CLASSIFICATION_TYPE":"U","NORAD_CAT_ID":60445,"ELEMENT_SET_NO":999,"REV_AT_EPOCH":6809,"BSTAR":4.962e-5,"MEAN_MOTION_DOT":1.11e-5,"MEAN_MOTION_DDOT":0},{"OBJECT_NAME":"STARLINK-32247","OBJECT_ID":"2024-144X","EPOCH":"2025-10-21T19:52:42.248928","MEAN_MOTION":15.30189857,"ECCENTRICITY":7.08e-5,"INCLINATION":53.1596,"RA_OF_ASC_NODE":131.7036,"ARG_OF_PERICENTER":74.5045,"MEAN_ANOMALY":285.6034,"EPHEMERIS_TYPE":0,"CLASSIFICATION_TYPE":"U","NORAD_CAT_ID":60446,"ELEMENT_SET_NO":999,"REV_AT_EPOCH":6823,"BSTAR":4.1068e-5,"MEAN_MOTION_DOT":8.57e-6,"MEAN_MOTION_DDOT":0},{"OBJECT_NAME":"STARLINK-32101","OBJECT_ID":"2024-144Y","EPOCH":"2025-10-21T20:00:11.420064","MEAN_MOTION":15.30188143,"ECCENTRICITY":0.0001177,"INCLINATION":53.1587,"RA_OF_ASC_NODE":141.8181,"ARG_OF_PERICENTER":97.1289,"MEAN_ANOMALY":262.9845,"EPHEMERIS_TYPE":0,"CLASSIFICATION_TYPE":"U","NORAD_CAT_ID":60447,"ELEMENT_SET_NO":999,"REV_AT_EPOCH":6805,"BSTAR":7.1481e-5,"MEAN_MOTION_DOT":1.758e-5,"MEAN_MOTION_DDOT":0},{"OBJECT_NAME":"STARLINK-31844","OBJECT_ID":"2024-150A","EPOCH":"2025-10-21T13:20:49.295040","MEAN_MOTION":15.30185732,"ECCENTRICITY":7.75e-5,"INCLINATION":53.1585,"RA_OF_ASC_NODE":232.9905,"ARG_OF_PERICENTER":60.7697,"MEAN_ANOMALY":299.3381,"EPHEMERIS_TYPE":0,"CLASSIFICATION_TYPE":"U","NORAD_CAT_ID":60583,"ELEMENT_SET_NO":999,"REV_AT_EPOCH":6674,"BSTAR":0.0001042,"MEAN_MOTION_DOT":2.727e-5,"MEAN_MOTION_DDOT":0},{"OBJECT_NAME":"STARLINK-32204","OBJECT_ID":"2024-150B","EPOCH":"2025-10-21T06:08:32.344224","MEAN_MOTION":15.30194381,"ECCENTRICITY":0.00012597,"INCLINATION":53.1602,"RA_OF_ASC_NODE":234.6634,"ARG_OF_PERICENTER":64.4694,"MEAN_ANOMALY":295.6437,"EPHEMERIS_TYPE":0,"CLASSIFICATION_TYPE":"U","NORAD_CAT_ID":60584,"ELEMENT_SET_NO":999,"REV_AT_EPOCH":6669,"BSTAR":3.9234441e-5,"MEAN_MOTION_DOT":8.03e-6,"MEAN_MOTION_DDOT":0},{"OBJECT_NAME":"STARLINK-32130","OBJECT_ID":"2024-150C","EPOCH":"2025-10-21T12:58:11.610624","MEAN_MOTION":15.30174283,"ECCENTRICITY":0.0001058,"INCLINATION":53.1596,"RA_OF_ASC_NODE":233.6002,"ARG_OF_PERICENTER":104.9023,"MEAN_ANOMALY":255.2095,"EPHEMERIS_TYPE":0,"CLASSIFICATION_TYPE":"U","NORAD_CAT_ID":60585,"ELEMENT_SET_NO":999,"REV_AT_EPOCH":6665,"BSTAR":-6.8164e-5,"MEAN_MOTION_DOT":-2.376e-5,"MEAN_MOTION_DDOT":0},{"OBJECT_NAME":"STARLINK-32173","OBJECT_ID":"2024-150D","EPOCH":"2025-10-21T19:56:46.932864","MEAN_MOTION":15.30179689,"ECCENTRICITY":8.55e-5,"INCLINATION":53.1605,"RA_OF_ASC_NODE":231.8579,"ARG_OF_PERICENTER":92.1387,"MEAN_ANOMALY":267.9711,"EPHEMERIS_TYPE":0,"CLASSIFICATION_TYPE":"U","NORAD_CAT_ID":60586,"ELEMENT_SET_NO":999,"REV_AT_EPOCH":6678,"BSTAR":0.00016051,"MEAN_MOTION_DOT":4.395e-5,"MEAN_MOTION_DDOT":0},{"OBJECT_NAME":"STARLINK-31911","OBJECT_ID":"2024-150E","EPOCH":"2025-10-21T12:44:29.753088","MEAN_MOTION":15.30202017,"ECCENTRICITY":0.0001071,"INCLINATION":53.1612,"RA_OF_ASC_NODE":233.5395,"ARG_OF_PERICENTER":80.9391,"MEAN_ANOMALY":279.1731,"EPHEMERIS_TYPE":0,"CLASSIFICATION_TYPE":"U","NORAD_CAT_ID":60587,"ELEMENT_SET_NO":999,"REV_AT_EPOCH":6665,"BSTAR":3.3891e-5,"MEAN_MOTION_DOT":6.45e-6,"MEAN_MOTION_DDOT":0},{"OBJECT_NAME":"STARLINK-31994","OBJECT_ID":"2024-150F","EPOCH":"2025-10-21T19:46:08.774688","MEAN_MOTION":15.30183417,"ECCENTRICITY":0.0001053,"INCLINATION":53.1609,"RA_OF_ASC_NODE":231.8104,"ARG_OF_PERICENTER":91.2699,"MEAN_ANOMALY":268.8423,"EPHEMERIS_TYPE":0,"CLASSIFICATION_TYPE":"U","NORAD_CAT_ID":60588,"ELEMENT_SET_NO":999,"REV_AT_EPOCH":6670,"BSTAR":9.2625e-5,"MEAN_MOTION_DOT":2.384e-5,"MEAN_MOTION_DDOT":0},{"OBJECT_NAME":"STARLINK-32169","OBJECT_ID":"2024-150G","EPOCH":"2025-10-21T19:31:07.036032","MEAN_MOTION":15.30182448,"ECCENTRICITY":0.0001381,"INCLINATION":53.1615,"RA_OF_ASC_NODE":232.4559,"ARG_OF_PERICENTER":102.4968,"MEAN_ANOMALY":257.6187,"EPHEMERIS_TYPE":0,"CLASSIFICATION_TYPE":"U","NORAD_CAT_ID":60589,"ELEMENT_SET_NO":999,"REV_AT_EPOCH":6677,"BSTAR":7.8402e-5,"MEAN_MOTION_DOT":1.962e-5,"MEAN_MOTION_DDOT":0},{"OBJECT_NAME":"STARLINK-32209","OBJECT_ID":"2024-150H","EPOCH":"2025-10-21T05:57:53.087040","MEAN_MOTION":15.30203205,"ECCENTRICITY":0.0001224,"INCLINATION":53.1601,"RA_OF_ASC_NODE":234.6219,"ARG_OF_PERICENTER":82.7377,"MEAN_ANOMALY":277.3763,"EPHEMERIS_TYPE":0,"CLASSIFICATION_TYPE":"U","NORAD_CAT_ID":60590,"ELEMENT_SET_NO":999,"REV_AT_EPOCH":6669,"BSTAR":0.00016805744,"MEAN_MOTION_DOT":4.622e-5,"MEAN_MOTION_DDOT":0},{"OBJECT_NAME":"STARLINK-32170","OBJECT_ID":"2024-150J","EPOCH":"2025-10-21T05:17:01.876704","MEAN_MOTION":15.30194796,"ECCENTRICITY":0.00013639,"INCLINATION":53.1613,"RA_OF_ASC_NODE":235.1549,"ARG_OF_PERICENTER":102.8293,"MEAN_ANOMALY":257.286,"EPHEMERIS_TYPE":0,"CLASSIFICATION_TYPE":"U","NORAD_CAT_ID":60591,"ELEMENT_SET_NO":999,"REV_AT_EPOCH":6660,"BSTAR":3.4875445e-5,"MEAN_MOTION_DOT":6.74e-6,"MEAN_MOTION_DDOT":0},{"OBJECT_NAME":"STARLINK-31497","OBJECT_ID":"2024-150K","EPOCH":"2025-10-21T20:24:07.255872","MEAN_MOTION":15.30207363,"ECCENTRICITY":0.0001215,"INCLINATION":53.1605,"RA_OF_ASC_NODE":231.9796,"ARG_OF_PERICENTER":88.4801,"MEAN_ANOMALY":271.6339,"EPHEMERIS_TYPE":0,"CLASSIFICATION_TYPE":"U","NORAD_CAT_ID":60592,"ELEMENT_SET_NO":999,"REV_AT_EPOCH":6678,"BSTAR":9.9123e-5,"MEAN_MOTION_DOT":2.578e-5,"MEAN_MOTION_DDOT":0},{"OBJECT_NAME":"STARLINK-32161","OBJECT_ID":"2024-150L","EPOCH":"2025-10-21T20:01:20.287776","MEAN_MOTION":15.3018298,"ECCENTRICITY":0.0001063,"INCLINATION":53.1599,"RA_OF_ASC_NODE":231.8775,"ARG_OF_PERICENTER":44.6842,"MEAN_ANOMALY":315.4244,"EPHEMERIS_TYPE":0,"CLASSIFICATION_TYPE":"U","NORAD_CAT_ID":60593,"ELEMENT_SET_NO":999,"REV_AT_EPOCH":6670,"BSTAR":9.9761e-5,"MEAN_MOTION_DOT":2.595e-5,"MEAN_MOTION_DDOT":0},{"OBJECT_NAME":"STARLINK-32210","OBJECT_ID":"2024-150M","EPOCH":"2025-10-21T05:35:06.694368","MEAN_MOTION":15.30185977,"ECCENTRICITY":0.00014259,"INCLINATION":53.1583,"RA_OF_ASC_NODE":234.5174,"ARG_OF_PERICENTER":96.7711,"MEAN_ANOMALY":263.3452,"EPHEMERIS_TYPE":0,"CLASSIFICATION_TYPE":"U","NORAD_CAT_ID":60594,"ELEMENT_SET_NO":999,"REV_AT_EPOCH":6669,"BSTAR":-3.3399929e-5,"MEAN_MOTION_DOT":-1.348e-5,"MEAN_MOTION_DDOT":0},{"OBJECT_NAME":"STARLINK-32202","OBJECT_ID":"2024-150N","EPOCH":"2025-10-21T20:43:53.197824","MEAN_MOTION":15.30191508,"ECCENTRICITY":9.1e-5,"INCLINATION":53.1613,"RA_OF_ASC_NODE":232.0619,"ARG_OF_PERICENTER":74.4447,"MEAN_ANOMALY":285.6654,"EPHEMERIS_TYPE":0,"CLASSIFICATION_TYPE":"U","NORAD_CAT_ID":60595,"ELEMENT_SET_NO":999,"REV_AT_EPOCH":6678,"BSTAR":9.2927e-5,"MEAN_MOTION_DOT":2.393e-5,"MEAN_MOTION_DDOT":0},{"OBJECT_NAME":"STARLINK-31930","OBJECT_ID":"2024-150P","EPOCH":"2025-10-21T19:50:41.911008","MEAN_MOTION":15.3018628,"ECCENTRICITY":0.000148,"INCLINATION":53.1623,"RA_OF_ASC_NODE":231.8298,"ARG_OF_PERICENTER":96.5219,"MEAN_ANOMALY":263.595,"EPHEMERIS_TYPE":0,"CLASSIFICATION_TYPE":"U","NORAD_CAT_ID":60596,"ELEMENT_SET_NO":999,"REV_AT_EPOCH":6670,"BSTAR":5.6202e-5,"MEAN_MOTION_DOT":1.305e-5,"MEAN_MOTION_DDOT":0},{"OBJECT_NAME":"STARLINK-32162","OBJECT_ID":"2024-150Q","EPOCH":"2025-10-21T13:11:51.605376","MEAN_MOTION":15.30191938,"ECCENTRICITY":0.0001448,"INCLINATION":53.1609,"RA_OF_ASC_NODE":233.6588,"ARG_OF_PERICENTER":104.2955,"MEAN_ANOMALY":255.8206,"EPHEMERIS_TYPE":0,"CLASSIFICATION_TYPE":"U","NORAD_CAT_ID":60597,"ELEMENT_SET_NO":999,"REV_AT_EPOCH":6673,"BSTAR":2.5454e-5,"MEAN_MOTION_DOT":3.94e-6,"MEAN_MOTION_DDOT":0},{"OBJECT_NAME":"STARLINK-32208","OBJECT_ID":"2024-150R","EPOCH":"2025-10-21T05:26:08.424096","MEAN_MOTION":15.30204005,"ECCENTRICITY":0.00013417,"INCLINATION":53.1596,"RA_OF_ASC_NODE":235.1931,"ARG_OF_PERICENTER":112.285,"MEAN_ANOMALY":247.8294,"EPHEMERIS_TYPE":0,"CLASSIFICATION_TYPE":"U","NORAD_CAT_ID":60598,"ELEMENT_SET_NO":999,"REV_AT_EPOCH":6668,"BSTAR":8.4756603e-5,"MEAN_MOTION_DOT":2.152e-5,"MEAN_MOTION_DDOT":0},{"OBJECT_NAME":"STARLINK-32165","OBJECT_ID":"2024-150S","EPOCH":"2025-10-21T13:02:43.864800","MEAN_MOTION":15.3020647,"ECCENTRICITY":0.0001551,"INCLINATION":53.1596,"RA_OF_ASC_NODE":233.6197,"ARG_OF_PERICENTER":86.5997,"MEAN_ANOMALY":273.5182,"EPHEMERIS_TYPE":0,"CLASSIFICATION_TYPE":"U","NORAD_CAT_ID":60599,"ELEMENT_SET_NO":999,"REV_AT_EPOCH":6673,"BSTAR":9.8813e-5,"MEAN_MOTION_DOT":2.569e-5,"MEAN_MOTION_DDOT":0}]
